NORAD_CAT_ID,OBJECT_NAME,OBJECT_TYPE,EPOCH,MEAN_MOTION,ECCENTRICITY,INCLINATION,RA_OF_ASC_NODE,ARG_OF_PERICENTER,MEAN_ANOMALY,BSTAR,MEAN_MOTION_DOT,MEAN_MOTION_DDOT,TLE_LINE0,TLE_LINE1,TLE_LINE2,SEMIMAJOR_AXIS,PERIOD,APOGEE,PERIGEE,DECAYED
54803.0,STARLINK-5430,PAYLOAD,2023-02-17 14:57:34,15.08814569,4.09e-05,53.2155,14.1211,359.0714,1.0278,0.0012469,0.00019598,0.0,0 STARLINK-5430,1 54803U 22175AX  23048.62331901  .00019598  00000-0  12469-2 0  9995,2 54803  53.2155  14.1211 0000409 359.0714   1.0278 15.08814569  9278,6917.958,95.439,540.106,539.54,0.0
54803.0,STARLINK-5430,PAYLOAD,2023-02-18 06:51:27,15.08827223,0.000148,53.2156,11.1439,73.0804,287.035,0.0015479,0.00024424,0.0,0 STARLINK-5430,1 54803U 22175AX  23049.28573618  .00024424  00000-0  15479-2 0  9999,2 54803  53.2156  11.1439 0001480  73.0804 287.0350 15.08827223  9370,6917.919,95.438,540.808,538.761,0.0
54803.0,STARLINK-5430,PAYLOAD,2023-02-18 14:48:23,15.08855194,0.0001393,53.2157,9.6578,72.6046,287.5098,0.0020672,0.00032779,0.0,0 STARLINK-5430,1 54803U 22175AX  23049.61693427  .00032779  00000-0  20672-2 0  9990,2 54803  53.2157   9.6578 0001393  72.6046 287.5098 15.08855194  9421,6917.834,95.437,540.663,538.735,0.0
54803.0,STARLINK-5430,PAYLOAD,2023-02-19 14:39:08,15.08887347,7.95e-05,53.2171,5.1995,45.0782,315.0275,0.0011112,0.00017464,0.0,0 STARLINK-5430,1 54803U 22175AX  23050.61051048  .00017464  00000-0  11112-2 0  9992,2 54803  53.2171   5.1995 0000795  45.0782 315.0275 15.08887347 11733,6917.736,95.435,540.151,539.051,0.0
54803.0,STARLINK-5430,PAYLOAD,2023-02-20 03:22:13,15.08851427,0.0001309,53.2171,2.8209,86.2093,273.9049,0.0017372,0.00027476,0.0,0 STARLINK-5430,1 54803U 22175AX  23051.14043371  .00027476  00000-0  17372-2 0  9999,2 54803  53.2171   2.8209 0001309  86.2093 273.9049 15.08851427  9658,6917.845,95.437,540.616,538.805,0.0
54803.0,STARLINK-5430,PAYLOAD,2023-02-20 06:32:59,15.08859595,0.000138,53.2173,2.2266,83.882,276.2329,0.0019665,0.00031164,0.0,0 STARLINK-5430,1 54803U 22175AX  23051.27291273  .00031164  00000-0  19665-2 0  9995,2 54803  53.2173   2.2266 0001380  83.8820 276.2329 15.08859595 11831,6917.82,95.436,540.64,538.731,0.0
54803.0,STARLINK-5430,PAYLOAD,2023-02-21 03:13:00,15.0884812,0.0001551,53.2185,358.3604,95.5522,264.5647,0.00067595,0.00010488,0.0,0 STARLINK-5430,1 54803U 22175AX  23052.13403614  .00010488  00000-0  67595-3 0  9997,2 54803  53.2185 358.3604 0001551  95.5522 264.5647 15.08848120  9803,6917.856,95.437,540.794,538.648,0.0
54803.0,STARLINK-5430,PAYLOAD,2023-02-21 12:45:19,15.08848361,0.0001394,53.2183,356.5767,81.54,278.575,0.00069205,0.00010746,0.0,0 STARLINK-5430,1 54803U 22175AX  23052.53147691  .00010746  00000-0  69205-3 0  9998,2 54803  53.2183 356.5767 0001394  81.5400 278.5750 15.08848361 12021,6917.855,95.437,540.684,538.755,0.0
54803.0,STARLINK-5430,PAYLOAD,2023-02-21 19:06:52,15.08844622,0.000162,53.219,355.3896,91.5612,268.5566,0.00047774,7.324e-05,0.0,0 STARLINK-5430,1 54803U 22175AX  23052.79643799  .00007324  00000-0  47774-3 0  9991,2 54803  53.2190 355.3896 0001620  91.5612 268.5566 15.08844622  9900,6917.866,95.437,540.852,538.611,0.0
54803.0,STARLINK-5430,PAYLOAD,2023-02-21 20:42:15,15.08840709,0.0001684,53.2196,355.0908,90.5609,269.5576,0.00022691,3.325e-05,0.0,0 STARLINK-5430,1 54803U 22175AX  23052.86267888  .00003325  00000-0  22691-3 0  9998,2 54803  53.2196 355.0908 0001684  90.5609 269.5576 15.08840709 12078,6917.878,95.438,540.908,538.578,0.0
54803.0,STARLINK-5430,PAYLOAD,2023-02-22 03:03:47,15.08851068,0.0001462,53.2187,353.9019,90.9686,269.1473,0.00034275,5.173e-05,0.0,0 STARLINK-5430,1 54803U 22175AX  23053.12763457  .00005173  00000-0  34275-3 0  9995,2 54803  53.2187 353.9019 0001462  90.9686 269.1473 15.08851068 12118,6917.847,95.437,540.723,538.7,0.0
54803.0,STARLINK-5430,PAYLOAD,2023-02-22 18:57:39,15.08834139,0.0001129,53.2173,350.9298,90.5623,269.5498,4.1438e-05,3.72e-06,0.0,0 STARLINK-5430,1 54803U 22175AX  23053.79004245  .00000372  00000-0  41438-4 0  9997,2 54803  53.2173 350.9298 0001129  90.5623 269.5498 15.08834139 10058,6917.898,95.438,540.544,538.982,0.0
54803.0,STARLINK-5430,PAYLOAD,2023-02-22 20:33:03,15.08830303,8.18e-05,53.2181,350.629,56.4371,303.6699,-5.7656e-06,-3.79e-06,0.0,0 STARLINK-5430,1 54803U 22175AX  23053.85628544 -.00000379  00000-0 -57656-5 0  9997,2 54803  53.2181 350.6290 0000818  56.4371 303.6699 15.08830303 12224,6917.91,95.438,540.341,539.209,0.0
54803.0,STARLINK-5430,PAYLOAD,2023-02-23 07:40:45,15.08838599,0.0001027,53.2175,348.5476,87.9274,272.1836,0.00018696,2.689e-05,0.0,0 STARLINK-5430,1 54803U 22175AX  23054.31996574  .00002689  00000-0  18696-3 0  9993,2 54803  53.2175 348.5476 0001027  87.9274 272.1836 15.08838599 12298,6917.885,95.438,540.46,539.039,0.0
54803.0,STARLINK-5430,PAYLOAD,2023-02-24 01:09:59,15.08866036,8.69e-05,53.2168,345.277,82.9316,277.1775,0.0011682,0.00018366,0.0,0 STARLINK-5430,1 54803U 22175AX  23055.04860078  .00018366  00000-0  11682-2 0  9999,2 54803  53.2168 345.2770 0000869  82.9316 277.1775 15.08866036 10243,6917.801,95.436,540.267,539.065,0.0
54803.0,STARLINK-5430,PAYLOAD,2023-02-24 04:20:44,15.08881863,8.59e-05,53.2166,344.6822,83.6526,276.4564,0.0015918,0.00025165,0.0,0 STARLINK-5430,1 54803U 22175AX  23055.18107614  .00025165  00000-0  15918-2 0  9995,2 54803  53.2166 344.6822 0000859  83.6526 276.4564 15.08881863 10267,6917.752,95.435,540.212,539.023,0.0
54803.0,STARLINK-5430,PAYLOAD,2023-02-24 18:39:13,15.08847124,9.54e-05,53.2164,342.0065,92.8266,267.2835,0.00063172,9.782e-05,0.0,0 STARLINK-5430,1 54803U 22175AX  23055.77724004  .00009782  00000-0  63172-3 0  9991,2 54803  53.2164 342.0065 0000954  92.8266 267.2835 15.08847124 10356,6917.859,95.437,540.384,539.064,0.0
54803.0,STARLINK-5430,PAYLOAD,2023-02-25 04:11:32,15.08842546,0.0001059,53.2163,340.2222,90.3894,269.7219,0.00095562,0.00014954,0.0,0 STARLINK-5430,1 54803U 22175AX  23056.17468178  .00014954  00000-0  95562-3 0  9998,2 54803  53.2163 340.2222 0001059  90.3894 269.7219 15.08842546 10410,6917.873,95.437,540.47,539.005,0.0
54803.0,STARLINK-5430,PAYLOAD,2023-02-26 00:51:33,15.08839471,9.56e-05,53.2156,336.355,104.2756,255.8343,0.0003743,5.674e-05,0.0,0 STARLINK-5430,1 54803U 22175AX  23057.03580404  .00005674  00000-0  37430-3 0  9990,2 54803  53.2156 336.3550 0000956 104.2756 255.8343 15.08839471 10540,6917.882,95.438,540.408,539.086,0.0
54803.0,STARLINK-5430,PAYLOAD,2023-02-26 04:02:19,15.08851549,0.0001441,53.217,335.7593,109.8654,250.2493,0.00065307,0.00010124,0.0,0 STARLINK-5430,1 54803U 22175AX  23057.16828194  .00010124  00000-0  65307-3 0  9995,2 54803  53.2170 335.7593 0001441 109.8654 250.2493 15.08851549 10561,6917.845,95.437,540.707,538.713,0.0
54803.0,STARLINK-5430,PAYLOAD,2023-02-27 00:42:19,15.08860776,9.73e-05,53.2168,331.8945,87.9701,272.1403,0.00071155,0.00011061,0.0,0 STARLINK-5430,1 54803U 22175AX  23058.02939547  .00011061  00000-0  71155-3 0  9995,2 54803  53.2168 331.8945 0000973  87.9701 272.1403 15.08860776 10694,6917.817,95.436,540.355,539.009,0.0
54803.0,STARLINK-5430,PAYLOAD,2023-02-28 03:43:50,15.08905807,0.0001183,53.2166,326.8393,95.1801,264.9326,0.00193,0.00030617,0.0,0 STARLINK-5430,1 54803U 22175AX  23059.15545109  .00030617  00000-0  19300-2 0  9998,2 54803  53.2166 326.8393 0001183  95.1801 264.9326 15.08905807 10866,6917.679,95.433,540.363,538.726,0.0
54803.0,STARLINK-5430,PAYLOAD,2023-02-28 21:13:07,15.08799661,0.0003449,53.2159,323.5654,134.269,225.8586,0.00034363,5.179e-05,0.0,0 STARLINK-5430,1 54803U 22175AX  23059.88411437  .00005179  00000-0  34363-3 0  9996,2 54803  53.2159 323.5654 0003449 134.2690 225.8586 15.08799661 13136,6918.004,95.44,542.255,537.483,0.0
54803.0,STARLINK-5430,PAYLOAD,2023-03-01 00:23:54,15.08794286,0.0001523,53.2175,322.9744,71.1942,288.9215,-0.00047308,-7.8e-05,0.0,0 STARLINK-5430,1 54803U 22175AX  23060.01660306 -.00007800  00000-0 -47308-3 0  9992,2 54803  53.2175 322.9744 0001523  71.1942 288.9215 15.08794286 10995,6918.02,95.44,540.939,538.832,0.0
54803.0,STARLINK-5430,PAYLOAD,2023-03-01 08:20:51,15.08799498,0.000167,53.2179,321.4889,75.1814,284.9363,0.00038797,5.885e-05,0.0,0 STARLINK-5430,1 54803U 22175AX  23060.34781398  .00005885  00000-0  38797-3 0  9994,2 54803  53.2179 321.4889 0001670  75.1814 284.9363 15.08799498 11045,6918.004,95.44,541.024,538.714,0.0
54803.0,STARLINK-5430,PAYLOAD,2023-03-01 21:03:56,15.0882574,0.000155,53.2169,319.1092,70.1096,290.0064,0.0012619,0.00019844,0.0,0 STARLINK-5430,1 54803U 22175AX  23060.87774123  .00019844  00000-0  12619-2 0  9994,2 54803  53.2169 319.1092 0001550  70.1096 290.0064 15.08825740 13282,6917.924,95.438,540.861,538.717,0.0
54803.0,STARLINK-5430,PAYLOAD,2023-03-02 03:25:29,15.08852007,0.0001602,53.2169,317.9202,70.3715,289.745,0.0014251,0.00022473,0.0,0 STARLINK-5430,1 54803U 22175AX  23061.14269842  .00022473  00000-0  14251-2 0  9998,2 54803  53.2169 317.9202 0001602  70.3715 289.7450 15.08852007 11164,6917.844,95.437,540.817,538.6,0.0
54803.0,STARLINK-5430,PAYLOAD,2023-03-03 01:40:52,15.08878208,0.0001595,53.2172,313.7555,86.7743,273.3431,0.0012435,0.00019578,0.0,0 STARLINK-5430,1 54803U 22175AX  23062.07004756  .00019578  00000-0  12435-2 0  9996,2 54803  53.2172 313.7555 0001595  86.7743 273.3431 15.08878208 11301,6917.764,95.435,540.732,538.525,0.0
54803.0,STARLINK-5430,PAYLOAD,2023-03-03 22:20:51,15.08888647,0.0001193,53.2159,309.8911,138.3816,221.7267,0.0016946,0.00026821,0.0,0 STARLINK-5430,1 54803U 22175AX  23062.93114922  .00026821  00000-0  16946-2 0  9998,2 54803  53.2159 309.8911 0001193 138.3816 221.7267 15.08888647 13592,6917.732,95.434,540.422,538.771,0.0
54803.0,STARLINK-5430,PAYLOAD,2023-03-03 23:56:14,15.08880704,0.0001116,53.2159,309.5939,116.9402,243.1705,0.0010022,0.00015716,0.0,0 STARLINK-5430,1 54803U 22175AX  23062.99738849  .00015716  00000-0  10022-2 0  9994,2 54803  53.2159 309.5939 0001116 116.9402 243.1705 15.08880704 11440,6917.756,95.435,540.393,538.849,0.0
